{
  "type": "FeatureCollection",
  "features": [
    {
      "type": "Feature",
      "properties": {
        "norad_id": 66822,
        "name": "STARLINK-35958",
        "group": "last-30-days",
        "lat": 29.77453727417581,
        "lon": 10.721671653399369,
        "alt_km": 315.9192872846497,
        "timestamp": "2025-12-11T08:58:25.856135+00:00",
        "meta_object_name": "STARLINK-35958",
        "meta_object_id": "2025-280B",
        "meta_epoch": "2025-12-10T16:00:01.999584",
        "meta_mean_motion": 15.87203288,
        "meta_eccentricity": 0.00039141,
        "meta_inclination": 69.9939,
        "meta_ra_of_asc_node": 204.789,
        "meta_arg_of_pericenter": 271.5252,
        "meta_mean_anomaly": 159.7958,
        "meta_ephemeris_type": 0,
        "meta_classification_type": "U",
        "meta_norad_cat_id": 66822,
        "meta_element_set_no": 999,
        "meta_rev_at_epoch": 256,
        "meta_bstar": -0.006752443,
        "meta_mean_motion_dot": -0.0155802,
        "meta_mean_motion_ddot": 0,
        "tle_line1": "1 66822U 25280B   25344.66668981 -.01558020  00000+0 -67524-2 0  9997",
        "tle_line2": "2 66822  69.9939 204.7890 0003914 271.5252 159.7958 15.87203288  2563"
      },
      "geometry": {
        "type": "Point",
        "coordinates": [
          10.721671653399369,
          29.77453727417581
        ]
      }
    },
    {
      "type": "Feature",
      "properties": {
        "norad_id": 66823,
        "name": "STARLINK-35957",
        "group": "last-30-days",
        "lat": 28.051732701472076,
        "lon": 11.555653711722712,
        "alt_km": 316.03349139122474,
        "timestamp": "2025-12-11T08:58:25.856146+00:00",
        "meta_object_name": "STARLINK-35957",
        "meta_object_id": "2025-280C",
        "meta_epoch": "2025-12-10T16:00:01.999584",
        "meta_mean_motion": 15.87244205,
        "meta_eccentricity": 0.00039284,
        "meta_inclination": 69.9938,
        "meta_ra_of_asc_node": 204.7867,
        "meta_arg_of_pericenter": 271.3861,
        "meta_mean_anomaly": 161.7087,
        "meta_ephemeris_type": 0,
        "meta_classification_type": "U",
        "meta_norad_cat_id": 66823,
        "meta_element_set_no": 999,
        "meta_rev_at_epoch": 256,
        "meta_bstar": -0.0067558235,
        "meta_mean_motion_dot": -0.01561515,
        "meta_mean_motion_ddot": 0,
        "tle_line1": "1 66823U 25280C   25344.66668981 -.01561515  00000+0 -67558-2 0  9998",
        "tle_line2": "2 66823  69.9938 204.7867 0003928 271.3861 161.7087 15.87244205  2566"
      },
      "geometry": {
        "type": "Point",
        "coordinates": [
          11.555653711722712,
          28.051732701472076
        ]
      }
    },
    {
      "type": "Feature",
      "properties": {
        "norad_id": 66824,
        "name": "STARLINK-35896",
        "group": "last-30-days",
        "lat": 26.268793879291813,
        "lon": 12.388461823801714,
        "alt_km": 316.3141660339943,
        "timestamp": "2025-12-11T08:58:25.856157+00:00",
        "meta_object_name": "STARLINK-35896",
        "meta_object_id": "2025-280D",
        "meta_epoch": "2025-12-10T18:00:02.000160",
        "meta_mean_motion": 15.87016307,
        "meta_eccentricity": 0.0003777,
        "meta_inclination": 69.9936,
        "meta_ra_of_asc_node": 204.544,
        "meta_arg_of_pericenter": 269.0036,
        "meta_mean_anomaly": 281.9492,
        "meta_ephemeris_type": 0,
        "meta_classification_type": "U",
        "meta_norad_cat_id": 66824,
        "meta_element_set_no": 999,
        "meta_rev_at_epoch": 258,
        "meta_bstar": -0.0070024,
        "meta_mean_motion_dot": -0.01595429,
        "meta_mean_motion_ddot": 0,
        "tle_line1": "1 66824U 25280D   25344.75002315 -.01595429  00000+0 -70024-2 0  9995",
        "tle_line2": "2 66824  69.9936 204.5440 0003777 269.0036 281.9492 15.87016307  2587"
      },
      "geometry": {
        "type": "Point",
        "coordinates": [
          12.388461823801714,
          26.268793879291813
        ]
      }
    },
    {
      "type": "Feature",
      "properties": {
        "norad_id": 66825,
        "name": "STARLINK-35476",
        "group": "last-30-days",
        "lat": 24.404972038620073,
        "lon": 13.2303314727703,
        "alt_km": 316.5045485431938,
        "timestamp": "2025-12-11T08:58:25.856168+00:00",
        "meta_object_name": "STARLINK-35476",
        "meta_object_id": "2025-280E",
        "meta_epoch": "2025-12-10T18:00:02.000160",
        "meta_mean_motion": 15.87054454,
        "meta_eccentricity": 0.0003729,
        "meta_inclination": 69.9936,
        "meta_ra_of_asc_node": 204.5418,
        "meta_arg_of_pericenter": 270.4103,
        "meta_mean_anomaly": 282.4783,
        "meta_ephemeris_type": 0,
        "meta_classification_type": "U",
        "meta_norad_cat_id": 66825,
        "meta_element_set_no": 999,
        "meta_rev_at_epoch": 243,
        "meta_bstar": -0.0070194,
        "meta_mean_motion_dot": -0.0160143,
        "meta_mean_motion_ddot": 0,
        "tle_line1": "1 66825U 25280E   25344.75002315 -.01601430  00000+0 -70194-2 0  9994",
        "tle_line2": "2 66825  69.9936 204.5418 0003729 270.4103 282.4783 15.87054454  2439"
      },
      "geometry": {
        "type": "Point",
        "coordinates": [
          13.2303314727703,
          24.404972038620073
        ]
      }
    },
    {
      "type": "Feature",
      "properties": {
        "norad_id": 66826,
        "name": "STARLINK-35898",
        "group": "last-30-days",
        "lat": 22.859135666169013,
        "lon": 13.907919271071128,
        "alt_km": 316.56035761922885,
        "timestamp": "2025-12-11T08:58:25.856178+00:00",
        "meta_object_name": "STARLINK-35898",
        "meta_object_id": "2025-280F",
        "meta_epoch": "2025-12-10T18:00:02.000160",
        "meta_mean_motion": 15.87096157,
        "meta_eccentricity": 0.0003795,
        "meta_inclination": 69.9935,
        "meta_ra_of_asc_node": 204.5397,
        "meta_arg_of_pericenter": 269.5275,
        "meta_mean_anomaly": 284.9348,
        "meta_ephemeris_type": 0,
        "meta_classification_type": "U",
        "meta_norad_cat_id": 66826,
        "meta_element_set_no": 999,
        "meta_rev_at_epoch": 258,
        "meta_bstar": -0.007008,
        "meta_mean_motion_dot": -0.01602116,
        "meta_mean_motion_ddot": 0,
        "tle_line1": "1 66826U 25280F   25344.75002315 -.01602116  00000+0 -70080-2 0  9991",
        "tle_line2": "2 66826  69.9935 204.5397 0003795 269.5275 284.9348 15.87096157  2583"
      },
      "geometry": {
        "type": "Point",
        "coordinates": [
          13.907919271071128,
          22.859135666169013
        ]
      }
    },
    {
      "type": "Feature",
      "properties": {
        "norad_id": 66827,
        "name": "STARLINK-35959",
        "group": "last-30-days",
        "lat": 21.060560658497756,
        "lon": 14.675967730683354,
        "alt_km": 316.67817443741296,
        "timestamp": "2025-12-11T08:58:25.856188+00:00",
        "meta_object_name": "STARLINK-35959",
        "meta_object_id": "2025-280G",
        "meta_epoch": "2025-12-10T18:00:02.000160",
        "meta_mean_motion": 15.87138781,
        "meta_eccentricity": 0.0003795,
        "meta_inclination": 69.9933,
        "meta_ra_of_asc_node": 204.5376,
        "meta_arg_of_pericenter": 269.301,
        "meta_mean_anomaly": 287.0125,
        "meta_ephemeris_type": 0,
        "meta_classification_type": "U",
        "meta_norad_cat_id": 66827,
        "meta_element_set_no": 999,
        "meta_rev_at_epoch": 258,
        "meta_bstar": -0.0070318,
        "meta_mean_motion_dot": -0.01609866,
        "meta_mean_motion_ddot": 0,
        "tle_line1": "1 66827U 25280G   25344.75002315 -.01609866  00000+0 -70318-2 0  9995",
        "tle_line2": "2 66827  69.9933 204.5376 0003795 269.3010 287.0125 15.87138781  2581"
      },
      "geometry": {
        "type": "Point",
        "coordinates": [
          14.675967730683354,
          21.060560658497756
        ]
      }
    },
    {
      "type": "Feature",
      "properties": {
        "norad_id": 66828,
        "name": "STARLINK-35982",
        "group": "last-30-days",
        "lat": 17.264178291631147,
        "lon": 16.235008038372595,
        "alt_km": 317.00717202499527,
        "timestamp": "2025-12-11T08:58:25.856201+00:00",
        "meta_object_name": "STARLINK-35982",
        "meta_object_id": "2025-280H",
        "meta_epoch": "2025-12-10T18:00:02.000160",
        "meta_mean_motion": 15.87215168,
        "meta_eccentricity": 0.0003751,
        "meta_inclination": 69.9934,
        "meta_ra_of_asc_node": 204.533,
        "meta_arg_of_pericenter": 270.7247,
        "meta_mean_anomaly": 289.5054,
        "meta_ephemeris_type": 0,
        "meta_classification_type": "U",
        "meta_norad_cat_id": 66828,
        "meta_element_set_no": 999,
        "meta_rev_at_epoch": 258,
        "meta_bstar": -0.0070591,
        "meta_mean_motion_dot": -0.01620676,
        "meta_mean_motion_ddot": 0,
        "tle_line1": "1 66828U 25280H   25344.75002315 -.01620676  00000+0 -70591-2 0  9991",
        "tle_line2": "2 66828  69.9934 204.5330 0003751 270.7247 289.5054 15.87215168  2586"
      },
      "geometry": {
        "type": "Point",
        "coordinates": [
          16.235008038372595,
          17.264178291631147
        ]
      }
    }
  ]
}